O3B MPOWER F1           
1 54755U 22174A   24120.84265708 -.00000015  00000+0  00000+0 0  9996
2 54755   0.0651   2.0603 0006729  42.0666  90.2608  5.00114622 26429
